ONEWEB-0578             
1 56067U 23043X   25064.84560364  .00000055  00000+0  10102-3 0  9995
2 56067  87.9346 337.3358 0001642  78.6197 281.5121 13.21824455 96365
ONEWEB-0579             
1 56068U 23043Y   25064.76045178  .00000078  00000+0  15714-3 0  9997
2 56068  87.9344 337.3420 0002128  83.6509 276.4867 13.21827226 96366
ONEWEB-0581             
1 56069U 23043Z   25065.16099069  .00000185  00000+0  45007-3 0  9998
2 56069  87.9105 322.0843 0001783  95.9515 264.1819 13.16594962 98287
ONEWEB-0609             
1 56070U 23043AA  25064.82273505 -.00000119  00000+0 -34989-3 0  9997
2 56070  87.9137 352.5078 0001880  75.5077 284.6262 13.15548723 94858
ONEWEB-0613             
1 56071U 23043AB  25064.81797654 -.00000065  00000+0 -20739-3 0  9991
2 56071  87.9143 352.5152 0002109  79.8483 280.2885 13.15550166 94859
ONEWEB-0630             
1 56072U 23043AC  25064.81322876 -.00000076  00000+0 -23578-3 0  9998
2 56072  87.9138 352.4977 0002135  77.0596 283.0773 13.15548582 94847
ONEWEB-0632             
1 56073U 23043AD  25064.80845988 -.00000004  00000+0 -43820-4 0  9996
2 56073  87.9140 352.5180 0001864  86.6201 273.5142 13.15550407 94848
ONEWEB-0633             
1 56074U 23043AE  25064.80213946  .00000061  00000+0  12908-3 0  9993
2 56074  87.9135 352.4912 0002241  72.6990 287.4386 13.15549031 94828
